[
    {
        "Altitude(m)": 557914.1668584725,
        "Argument of Periapsis(deg)": 0.006622991110713501,
        "Eccentricity": 0.0,
        "Inclination(deg)": 53.0,
        "Latitude(deg)": 44.44996160923818,
        "Longitude(deg)": 176.54926583638724,
        "Mean Anomaly(deg)": 61.00069286757756,
        "RAAN(deg)": 229.990143368528,
        "Satellite Name": "Starlink Shell 1 1015",
        "Satellite Number": 1015,
        "Semi-Major Axis(m)": 6931778.249405717,
        "Time(s)": 190
    },
    {
        "Altitude(m)": 557990.0570402432,
        "Argument of Periapsis(deg)": 0.0069715695902247375,
        "Eccentricity": 0.0,
        "Inclination(deg)": 53.0,
        "Latitude(deg)": 44.787543599467206,
        "Longitude(deg)": 177.24884037741947,
        "Mean Anomaly(deg)": 61.62752407113431,
        "RAAN(deg)": 229.98962459845055,
        "Satellite Name": "Starlink Shell 1 1015",
        "Satellite Number": 1015,
        "Semi-Major Axis(m)": 6931778.249405717,
        "Time(s)": 200
    },
    {
        "Altitude(m)": 558065.04530728,
        "Argument of Periapsis(deg)": 0.007320148069735974,
        "Eccentricity": 0.0,
        "Inclination(deg)": 53.0,
        "Latitude(deg)": 45.12024477218301,
        "Longitude(deg)": 177.9570305782782,
        "Mean Anomaly(deg)": 62.25435527469101,
        "RAAN(deg)": 229.98910582837306,
        "Satellite Name": "Starlink Shell 1 1015",
        "Satellite Number": 1015,
        "Semi-Major Axis(m)": 6931778.249405717,
        "Time(s)": 210
    },
    {
        "Altitude(m)": 558139.0847934998,
        "Argument of Periapsis(deg)": 0.007668726549247212,
        "Eccentricity": 0.0,
        "Inclination(deg)": 53.0,
        "Latitude(deg)": 45.44795233406517,
        "Longitude(deg)": 178.67390859923952,
        "Mean Anomaly(deg)": 62.881186478247706,
        "RAAN(deg)": 229.98858705829556,
        "Satellite Name": "Starlink Shell 1 1015",
        "Satellite Number": 1015,
        "Semi-Major Axis(m)": 6931778.249405717,
        "Time(s)": 220
    },
    {
        "Altitude(m)": 558212.1293218242,
        "Argument of Periapsis(deg)": 0.00801730502875845,
        "Eccentricity": 0.0,
        "Inclination(deg)": 53.0,
        "Latitude(deg)": 45.77055194011018,
        "Longitude(deg)": 179.39954030616823,
        "Mean Anomaly(deg)": 63.50801768180446,
        "RAAN(deg)": 229.98806828821813,
        "Satellite Name": "Starlink Shell 1 1015",
        "Satellite Number": 1015,
        "Semi-Major Axis(m)": 6931778.249405717,
        "Time(s)": 230
    },
    {
        "Altitude(m)": 558284.1334271976,
        "Argument of Periapsis(deg)": 0.008365883508269684,
        "Eccentricity": 0.0,
        "Inclination(deg)": 53.0,
        "Latitude(deg)": 46.08792776406813,
        "Longitude(deg)": -179.86601472368352,
        "Mean Anomaly(deg)": 64.13484888536115,
        "RAAN(deg)": 229.98754951814064,
        "Satellite Name": "Starlink Shell 1 1015",
        "Satellite Number": 1015,
        "Semi-Major Axis(m)": 6931778.249405717,
        "Time(s)": 240
    },
    {
        "Altitude(m)": 558355.052379242,
        "Argument of Periapsis(deg)": 0.008714461987780921,
        "Eccentricity": 0.0,
        "Inclination(deg)": 53.0,
        "Latitude(deg)": 46.3999625777449,
        "Longitude(deg)": -179.12270472307188,
        "Mean Anomaly(deg)": 64.7616800889179,
        "RAAN(deg)": 229.98703074806315,
        "Satellite Name": "Starlink Shell 1 1015",
        "Satellite Number": 1015,
        "Semi-Major Axis(m)": 6931778.249405717,
        "Time(s)": 250
    },
    {
        "Altitude(m)": 558424.8422044846,
        "Argument of Periapsis(deg)": 0.009063040467292158,
        "Eccentricity": 0.0,
        "Inclination(deg)": 53.0,
        "Latitude(deg)": 46.7065378395617,
        "Longitude(deg)": -178.37048575616234,
        "Mean Anomaly(deg)": 65.38851129247459,
        "RAAN(deg)": 229.98651197798574,
        "Satellite Name": "Starlink Shell 1 1015",
        "Satellite Number": 1015,
        "Semi-Major Axis(m)": 6931778.249405717,
        "Time(s)": 260
    },
    {
        "Altitude(m)": 558493.4597082445,
        "Argument of Periapsis(deg)": 0.009411618946803396,
        "Eccentricity": 0.0,
        "Inclination(deg)": 53.0,
        "Latitude(deg)": 47.007533792755446,
        "Longitude(deg)": -177.60932175111114,
        "Mean Anomaly(deg)": 66.0153424960313,
        "RAAN(deg)": 229.98599320790825,
        "Satellite Name": "Starlink Shell 1 1015",
        "Satellite Number": 1015,
        "Semi-Major Axis(m)": 6931778.249405717,
        "Time(s)": 270
    },
    {
        "Altitude(m)": 558560.862496059,
        "Argument of Periapsis(deg)": 0.009760197426314633,
        "Eccentricity": 0.0,
        "Inclination(deg)": 53.0,
        "Latitude(deg)": 47.30282957357576,
        "Longitude(deg)": -176.83918605474184,
        "Mean Anomaly(deg)": 66.64217369958804,
        "RAAN(deg)": 229.98547443783076,
        "Satellite Name": "Starlink Shell 1 1015",
        "Satellite Number": 1015,
        "Semi-Major Axis(m)": 6931778.249405717,
        "Time(s)": 280
    },
    {
        "Altitude(m)": 558627.0089947364,
        "Argument of Periapsis(deg)": 0.01010877590582587,
        "Eccentricity": 0.0,
        "Inclination(deg)": 53.0,
        "Latitude(deg)": 47.592303329798824,
        "Longitude(deg)": -176.06006148133116,
        "Mean Anomaly(deg)": 67.26900490314468,
        "RAAN(deg)": 229.9849556677533,
        "Satellite Name": "Starlink Shell 1 1015",
        "Satellite Number": 1015,
        "Semi-Major Axis(m)": 6931778.249405717,
        "Time(s)": 290
    },
    {
        "Altitude(m)": 558691.8584729404,
        "Argument of Periapsis(deg)": 0.010457354385337106,
        "Eccentricity": 0.0,
        "Inclination(deg)": 53.0,
        "Latitude(deg)": 47.87583234984842,
        "Longitude(deg)": -175.27194036585382,
        "Mean Anomaly(deg)": 67.89583610670148,
        "RAAN(deg)": 229.9844368976758,
        "Satellite Name": "Starlink Shell 1 1015",
        "Satellite Number": 1015,
        "Semi-Major Axis(m)": 6931778.249405717,
        "Time(s)": 300
    },
    {
        "Altitude(m)": 558755.3710613624,
        "Argument of Periapsis(deg)": 0.010805932864848343,
        "Eccentricity": 0.0,
        "Inclination(deg)": 53.0,
        "Latitude(deg)": 48.153293202770456,
        "Longitude(deg)": -174.4748261317431,
        "Mean Anomaly(deg)": 68.52266731025817,
        "RAAN(deg)": 229.98391812759834,
        "Satellite Name": "Starlink Shell 1 1015",
        "Satellite Number": 1015,
        "Semi-Major Axis(m)": 6931778.249405717,
        "Time(s)": 310
    },
    {
        "Altitude(m)": 558817.5077724534,
        "Argument of Periapsis(deg)": 0.01115451134435958,
        "Eccentricity": 0.0,
        "Inclination(deg)": 53.0,
        "Latitude(deg)": 48.424561889251265,
        "Longitude(deg)": -173.66873334430406,
        "Mean Anomaly(deg)": 69.14949851381488,
        "RAAN(deg)": 229.98339935752088,
        "Satellite Name": "Starlink Shell 1 1015",
        "Satellite Number": 1015,
        "Semi-Major Axis(m)": 6931778.249405717,
        "Time(s)": 320
    },
    {
        "Altitude(m)": 558878.2305196904,
        "Argument of Periapsis(deg)": 0.011503089823870818,
        "Eccentricity": 0.0,
        "Inclination(deg)": 53.0,
        "Latitude(deg)": 48.68951400381674,
        "Longitude(deg)": -172.85368775924545,
        "Mean Anomaly(deg)": 69.77632971737157,
        "RAAN(deg)": 229.9828805874434,
        "Satellite Name": "Starlink Shell 1 1015",
        "Satellite Number": 1015,
        "Semi-Major Axis(m)": 6931778.249405717,
        "Time(s)": 330
    },
    {
        "Altitude(m)": 558937.5021363882,
        "Argument of Periapsis(deg)": 0.011851668303382053,
        "Eccentricity": 0.0,
        "Inclination(deg)": 53.0,
        "Latitude(deg)": 48.94802490828874,
        "Longitude(deg)": -172.02972787549433,
        "Mean Anomaly(deg)": 70.4031609209283,
        "RAAN(deg)": 229.9823618173659,
        "Satellite Name": "Starlink Shell 1 1015",
        "Satellite Number": 1015,
        "Semi-Major Axis(m)": 6931778.249405717,
        "Time(s)": 340
    },
    {
        "Altitude(m)": 558995.2863940255,
        "Argument of Periapsis(deg)": 0.012200246782893292,
        "Eccentricity": 0.0,
        "Inclination(deg)": 53.0,
        "Latitude(deg)": 49.19996991649075,
        "Longitude(deg)": -171.19690496256464,
        "Mean Anomaly(deg)": 71.02999212448505,
        "RAAN(deg)": 229.98184304728846,
        "Satellite Name": "Starlink Shell 1 1015",
        "Satellite Number": 1015,
        "Semi-Major Axis(m)": 6931778.249405717,
        "Time(s)": 350
    },
    {
        "Altitude(m)": 559051.5480201285,
        "Argument of Periapsis(deg)": 0.012548825262404526,
        "Eccentricity": 0.0,
        "Inclination(deg)": 53.0,
        "Latitude(deg)": 49.44522449012576,
        "Longitude(deg)": -170.3552830710909,
        "Mean Anomaly(deg)": 71.65682332804175,
        "RAAN(deg)": 229.98132427721097,
        "Satellite Name": "Starlink Shell 1 1015",
        "Satellite Number": 1015,
        "Semi-Major Axis(m)": 6931778.249405717,
        "Time(s)": 360
    },
    {
        "Altitude(m)": 559106.252715637,
        "Argument of Periapsis(deg)": 0.012897403741915765,
        "Eccentricity": 0.0,
        "Inclination(deg)": 53.0,
        "Latitude(deg)": 49.68366444566114,
        "Longitude(deg)": -169.50494053489595,
        "Mean Anomaly(deg)": 72.28365453159844,
        "RAAN(deg)": 229.98080550713348,
        "Satellite Name": "Starlink Shell 1 1015",
        "Satellite Number": 1015,
        "Semi-Major Axis(m)": 6931778.249405717,
        "Time(s)": 370
    }
]